COSMOS 2419 (714)       
1 28915U 05050A   17241.81445106  .00000001  00000-0  00000+0 0  9999
2 28915  65.5321  63.3725 0016017 358.7082  48.1168  2.13106753 90907
COSMOS 2425 (716)       
1 29670U 06062A   17242.25692928 -.00000021  00000-0  10000-3 0  9995
2 29670  65.4235 302.3656 0019682 341.1812  96.7934  2.13104943 83110
COSMOS 2426 (717)       
1 29671U 06062B   17242.05347558 -.00000023  00000-0  10000-3 0  9992
2 29671  65.4415 302.4645 0019094 169.7659 329.9104  2.13102925 83118
COSMOS 2424 (715)       
1 29672U 06062C   17241.79303656 -.00000026  00000-0  10000-3 0  9997
2 29672  65.4258 302.3944 0018504 168.6220 306.4128  2.13102357 83106
COSMOS 2433 (720)       
1 32275U 07052A   17242.04741331  .00000003  00000-0  10000-3 0  9999
2 32275  65.5483  63.1443 0000620 206.8839 262.3365  2.13104611 76624
COSMOS 2432 (719)       
1 32276U 07052B   17242.45498240  .00000006  00000-0  10000-3 0  9996
2 32276  65.5585  63.2025 0010256 346.6801  27.9498  2.13103995 76630
COSMOS 2434 (721)       
1 32393U 07065A   17242.43329001 -.00000018  00000-0  00000+0 0  9995
2 32393  65.0395 301.4736 0004263 143.0307 151.4632  2.13102943 75332
COSMOS 2436 (723)       
1 32395U 07065C   17242.07998801 -.00000022  00000-0  10000-3 0  9997
2 32395  65.0491 301.5332 0013043 354.9363  77.5756  2.13104310 75262
COSMOS 2443 (725)       
1 33379U 08046B   17242.48520061  .00000006  00000-0  00000+0 0  9990
2 33379  65.4784  62.5057 0012724 175.4553 168.7678  2.13099668 69497
COSMOS 2456 (730)       
1 36111U 09070A   17242.00979219  .00000003  00000-0  00000+0 0  9993
2 36111  64.1816 181.0528 0005778 303.6644 197.2920  2.13102974 59999
COSMOS 2457 (733)       
1 36112U 09070B   17242.04406760  .00000002  00000-0  00000-0 0  9994
2 36112  64.1635 180.9684 0006045 185.0719 110.4058  2.13101752 59995
COSMOS 2458 (734)       
1 36113U 09070C   17241.97687169  .00000003  00000-0  10000-3 0  9995
2 36113  64.1693 180.9792 0002289 314.1005 337.8862  2.13101889 59998
COSMOS 2459 (731)       
1 36400U 10007A   17242.12677690  .00000002  00000-0  10000-3 0  9991
2 36400  65.4558  62.2383 0026867 357.2839  34.2950  2.13102192 58353
COSMOS 2461 (735)       
1 36401U 10007B   17242.26248517  .00000004  00000-0  10000-3 0  9991
2 36401  65.4494  62.2119 0008766  75.3135 330.9948  2.13102186 58351
COSMOS 2460 (732)       
1 36402U 10007C   17242.19150501  .00000003  00000-0  10000-3 0  9998
2 36402  65.4391  62.1843 0002377  93.0259 299.9479  2.13101657 58352
COSMOS 2465 (737)       
1 37138U 10041B   17242.10229510 -.00000022  00000-0  00000-0 0  9999
2 37138  64.6369 301.4349 0036585 171.5391 272.8285  2.13097481 54420
COSMOS 2464 (736)       
1 37139U 10041C   17242.32765492 -.00000020  00000-0  00000+0 0  9995
2 37139  64.6443 301.4281 0021081  10.4692  70.7197  2.13102655 54426
COSMOS 2471 (701K)      
1 37372U 11009A   17242.46161844  .00000005  00000-0  00000+0 0  9997
2 37372  65.4379  62.1228 0007031 221.9579 155.9571  2.13107775 50635
COSMOS 2474 (742)       
1 37829U 11055A   17241.90319725  .00000005  00000-0  00000+0 0  9996
2 37829  64.5063 181.6511 0010032 252.6428  25.9963  2.13101939 45982
COSMOS 2476 (744)       
1 37867U 11064A   17242.03916668  .00000004  00000-0  00000-0 0  9992
2 37867  64.4856 181.7166 0019345 245.7254 183.1868  2.13101975 45347
COSMOS 2477 (745)       
1 37868U 11064B   17242.10793701  .00000004  00000-0  00000+0 0  9991
2 37868  64.4941 181.7602 0017219 247.1289  53.6214  2.13101867 45290
COSMOS 2475 (743)       
1 37869U 11064C   17242.01715969  .00000004  00000-0  00000+0 0  9992
2 37869  64.5016 181.7541 0022088 270.7822 276.7918  2.13102206 45301
COSMOS 2485 (747)       
1 39155U 13019A   17242.03760453  .00000004  00000-0  00000-0 0  9995
2 39155  64.6556 181.7623 0019675 240.7048 232.0053  2.13102054 33816
COSMOS 2492 (754)       
1 39620U 14012A   17242.09234620  .00000002  00000-0  10000-3 0  9996
2 39620  65.3303  62.1152 0013571 339.0209 209.9903  2.13103366 26760
COSMOS 2500 (755)       
1 40001U 14032A   17242.46347093  .00000004  00000-0  00000+0 0  9990
2 40001  65.2697  62.0938 0005554 182.7890 153.8359  2.13102770 24984
COSMOS 2501 (702K)      
1 40315U 14075A   17241.86164416 -.00000027  00000-0  00000-0 0  9991
2 40315  64.3712 302.7606 0016696 208.6985 191.3343  2.13098641 21380
COSMOS 2514 (751)       
1 41330U 16008A   17242.09253648  .00000001  00000-0  00000+0 0  9999
2 41330  65.0702  62.2309 0008278 202.1978  30.0301  2.13103330 12140
COSMOS 2516 (753)       
1 41554U 16032A   17242.07046804 -.00000025  00000-0  00000-0 0  9994
2 41554  64.5902 302.5365 0013986 219.0407 248.4631  2.13101563  9752
